0 DELTA 2 R/B(2) (PAM-D)
1 28476U 04045C   13282.11788531  .00165285  00000-0  17455-2 0  3692
2 28476 038.8708 213.8442 3491961 031.2833 058.1938 08.53506373200804
0 DELTA 2 R/B(2) (PAM-D)
1 28476U 04045C   13282.85415773  .00160185  00000-0  16915-2 0  3704
2 28476 038.8707 212.3667 3490777 033.2087 160.7811 08.53736709200867
0 DELTA 2 R/B(2) (PAM-D)
1 28476U 04045C   13283.17682895  .00165291  00000-0  17426-2 0  3713
2 28476 038.8704 211.7182 3490273 034.0537 072.5558 08.53845520200892
0 DELTA 2 R/B(2) (PAM-D)
1 28476U 04045C   13283.30221877  .00165423  00000-0  17439-2 0  3729
2 28476 038.8705 211.4666 3490109 034.3815 097.9926 08.53877672200902
0 DELTA 2 R/B(2) (PAM-D)
1 28476U 04045C   13283.86668133  .00165376  00000-0  17418-2 0  3735
2 28476 038.8702 210.3322 3489239 035.8604 033.3135 08.54052812200953
0 DELTA 2 R/B(2) (PAM-D)
1 28476U 04045C   13284.10585765  .00163384  00000-0  17203-2 0  3742
2 28476 038.8701 209.8517 3488875 036.4858 048.7189 08.54125586200974
0 DELTA 2 R/B(2) (PAM-D)
1 28476U 04045C   13285.16536965  .00154585  00000-0  16246-2 0  3768
2 28476 038.8703 207.7225 3487264 039.2595 067.1794 08.54451400201064
0 DELTA 2 R/B(2) (PAM-D)
1 28476U 04045C   13285.85567326  .00153520  00000-0  16121-2 0  3770
2 28476 038.8705 206.3336 3486245 041.0691 030.8230 08.54654755201127
0 DELTA 2 R/B(2) (PAM-D)
1 28476U 04045C   13286.20661395  .00154552  00000-0  16208-2 0  3784
2 28476 038.8706 205.6278 3485740 041.9878 030.6503 08.54761809201153
0 DELTA 2 R/B(2) (PAM-D)
1 28476U 04045C   13286.79209892  .00155565  00000-0  16298-2 0  3793
2 28476 038.8708 204.4500 3484886 043.5227 032.4672 08.54934395201201
0 DELTA 2 R/B(2) (PAM-D)
1 28476U 04045C   13287.15143573  .00156097  00000-0  16337-2 0  3804
2 28476 038.8711 203.7272 3484357 044.4626 058.5023 08.55044133201234
0 DELTA 2 R/B(2) (PAM-D)
1 28476U 04045C   13287.84358247  .00168169  00000-0  17546-2 0  3813
2 28476 038.8713 202.3340 3483359 046.2777 029.3118 08.55258811201292
0 DELTA 2 R/B(2) (PAM-D)
1 28476U 04045C   13288.20563802  .00177887  00000-0  18511-2 0  3820
2 28476 038.8715 201.6054 3482786 047.2264 064.1438 08.55387994201324
0 DELTA 2 R/B(2) (PAM-D)
1 28476U 04045C   13288.77938642  .00169419  00000-0  17594-2 0  3833
2 28476 038.8716 200.4497 3481910 048.7323 031.1525 08.55572306201372
0 DELTA 2 R/B(2) (PAM-D)
1 28476U 04045C   13289.13741023  .00174967  00000-0  18116-2 0  3845
2 28476 038.8717 199.7287 3481333 049.6698 053.9750 08.55704742201401
0 DELTA 2 R/B(2) (PAM-D)
1 28476U 04045C   13289.26300116  .00170318  00000-0  17628-2 0  3857
2 28476 038.8719 199.4761 3481202 049.9986 080.8729 08.55732949201411
0 DELTA 2 R/B(2) (PAM-D)
1 28476U 04045C   13289.86823711  .00173490  00000-0  17895-2 0  3865
2 28476 038.8719 198.2570 3480328 051.5873 145.6145 08.55926115201465
0 DELTA 2 R/B(2) (PAM-D)
1 28476U 04045C   13290.19094951  .00170323  00000-0  17520-2 0  3877
2 28476 038.8718 197.6057 3479863 052.4344 060.0715 08.56035477201491
0 DELTA 2 R/B(2) (PAM-D)
1 28476U 04045C   13290.30787206  .00172331  00000-0  17714-2 0  3889
2 28476 038.8717 197.3700 3479720 052.7416 060.4037 08.56068047201509
0 DELTA 2 R/B(2) (PAM-D)
1 28476U 04045C   13290.76425182  .00171501  00000-0  17582-2 0  3893
2 28476 038.8715 196.4496 3479051 053.9419 027.0253 08.56216258201544
0 DELTA 2 R/B(2) (PAM-D)
1 28476U 04045C   13291.24706193  .00165628  00000-0  16932-2 0  3904
2 28476 038.8715 195.4763 3478355 055.2078 075.3843 08.56371050201589
0 DELTA 2 R/B(2) (PAM-D)
1 28476U 04045C   13291.81409777  .00167634  00000-0  17081-2 0  3911
2 28476 038.8710 194.3314 3477537 056.7005 023.7235 08.56552382201638
0 DELTA 2 R/B(2) (PAM-D)
1 28476U 04045C   13292.17475270  .00164787  00000-0  16752-2 0  3923
2 28476 038.8709 193.6034 3476984 057.6476 055.9249 08.56675809201669
0 DELTA 2 R/B(2) (PAM-D)
1 28476U 04045C   13292.29174270  .00164426  00000-0  16708-2 0  3934
2 28476 038.8708 193.3673 3476837 057.9553 056.7362 08.56707388201674
0 DELTA 2 R/B(2) (PAM-D)
1 28476U 04045C   13292.86826534  .00165731  00000-0  16793-2 0  3949
2 28476 038.8705 192.2029 3476002 059.4731 035.0272 08.56888976201722
0 DELTA 2 R/B(2) (PAM-D)
1 28476U 04045C   13293.10676833  .00166334  00000-0  16834-2 0  3959
2 28476 038.8705 191.7214 3475621 060.0993 050.8054 08.56971171201741
0 DELTA 2 R/B(2) (PAM-D)
1 28476U 04045C   13293.22062377  .00166811  00000-0  16871-2 0  3966
2 28476 038.8704 191.4914 3475479 060.3991 042.0668 08.57003333201758
0 DELTA 2 R/B(2) (PAM-D)
1 28476U 04045C   13293.83795618  .00168681  00000-0  17012-2 0  3970
2 28476 038.8700 190.2447 3474605 062.0244 146.9067 08.57192477201803
0 DELTA 2 R/B(2) (PAM-D)
1 28476U 04045C   13294.15705127  .00170063  00000-0  17119-2 0  3988
2 28476 038.8699 189.5990 3474130 062.8646 051.6754 08.57297643201829
0 DELTA 2 R/B(2) (PAM-D)
1 28476U 04045C   13294.85070949  .00173594  00000-0  17424-2 0  3994
2 28476 038.8696 188.1960 3473118 064.6941 032.7895 08.57513992201881
0 DELTA 2 R/B(2) (PAM-D)
1 28476U 04045C   13295.20218061  .00168233  00000-0  16876-2 0  4000
2 28476 038.8695 187.4851 3472577 065.6188 037.8886 08.57623309201917
0 DELTA 2 R/B(2) (PAM-D)
1 28476U 04045C   13295.21156853  .00170546  00000-0  17101-2 0  4014
2 28476 038.8696 187.4667 3472564 065.6430 066.8716 08.57628594201925
0 DELTA 2 R/B(2) (PAM-D)
1 28476U 04045C   13295.88759535  .00169304  00000-0  16950-2 0  4025
2 28476 038.8694 186.0976 3471519 067.4278 354.3632 08.57842382201981
